#dP2023  5  1  0  0  0.00000000      96 __u+U ITR00 EXT  IAC
## 2260  86400.00000000   900.00000000 60065 0.0000000000000
+  120   C06C07C08C09C10C11C12C13C14C16C19C20C21C22C23C24C25
+        C26C27C28C29C30C32C33C34C35C36C37C38C39C40C41C42C43
+        C44C45C46E01E02E03E04E05E07E08E09E10E11E12E13E14E15
+        E18E19E21E24E25E26E27E30E31E33E34E36G01G02G03G04G05
+        G06G07G08G09G10G11G12G13G14G15G16G17G18G19G20G21G22
+        G23G24G25G26G27G28G29G30G31G32J02J03J04R01R02R03R04
+        R05R07R08R09R11R12R13R14R15R16R17R18R19R20R21R22R24
+        R25  0  0  0  0  0  0  0  0  0  0  0  0  0  0  0  0
++        11  9 10 11  8  8  8 10  9 10  8  7  8  8  8  7  9
++         7  8  8 10  9  8  8  7  9 10 10 11 10 10  9  8  8
++         8  8  7 11  8  7  8  7  7  7  7  8  7  7  8  7  7
++         7  7  7  8  8  8  7  7  8  7  8  7  7  8  8  6  7
++         6  7  8  7  6  8  7  7  8  8  6  7  6  7  7  7  8
++         7  8  7  7  7  7  7  6  5  8  9  9 11  8  9  8  7
++         8  9  9  8  8  9  9  9  8  9  8  9  8  7  8  8  7
++         7  0  0  0  0  0  0  0  0  0  0  0  0  0  0  0  0
%c M  cc GPS ccc cccc cccc cccc cccc ccccc ccccc ccccc ccccc
%c cc cc ccc ccc cccc cccc cccc cccc ccccc ccccc ccccc ccccc
%f  0.0000000  0.000000000  0.00000000000  0.000000000000000
%f  0.0000000  0.000000000  0.00000000000  0.000000000000000
%i    0    0    0    0      0      0      0      0         0
%i    0    0    0    0      0      0      0      0         0
/* IAC                                ULTRA-RAPID PREDICTION
/* S/V CLOCKS ARE ALIGNED TO GNSS TIME                      
/* G:C1WC2W R:C1PC2P E:C1XC5X C:C2IC6I J:C1CC2S             
/* PCV:IGS20_2247 OL/AL:FES2004  NONE     YN ORB:CoN CLK:CoN
*  2023 05 01 23 30  0.00000000
PC06 -18350.706636  32553.354847  19311.496791   -194.897953
PC07  -5207.360395  37738.052540  18307.371604     44.329520
PC08  -5622.996626  19819.968725 -36787.176494    494.430259
PC09  -9611.099825  30973.879650  27080.169467    702.579766
PC10   1478.704168  40737.533248  12078.730349    -47.443235
PC11   5719.048175  15793.576205 -22227.893762    331.614963
PC12 -10505.626907  23471.290921 -10812.645649    609.766631
PC13   2067.547757  23076.158619 -35041.622721    265.342219
PC14  13122.855335  24118.681457   5193.229170    200.303698
PC16 -21126.349964  32310.999765  16838.338920     92.021447
PC19 -16758.581555 -17585.443632 -13678.897477   -905.910927
PC20  -8347.427896 -26489.856201   2513.893550    593.420778
PC21  -5799.195719  20095.104782 -18468.715884   -912.192764
PC22 -15927.067824   1955.870791 -22823.002448   -508.502398
PC23  27030.563721   -690.899567  -6895.724794   -918.155861
PC24   5446.491507  16690.795397  21675.073880   -103.991776
PC25  24041.067032  10293.491756   9701.745311    118.017794
PC26 -13742.278040  12997.476452  20513.377479   -114.305620
PC27  16200.498905 -22554.158292   2815.714048    133.961674
PC28  21640.709749 -11750.995183 -13129.663983     98.910726
PC29 -14502.253394  -7167.650711  22728.002592    114.715405
PC30   1357.064293 -21755.326645  17426.374651      0.042361
PC32   5751.327480 -20046.785485  18552.468327   -569.097368
PC33  16891.022544  17567.575872  13626.181928   -877.385321
PC34   -137.689536  21125.853905 -18236.695212    161.392472
PC35 -21219.020011  11774.500199  13728.689948    635.584884
PC36 -23371.534243 -11217.377636 -10314.367965   -466.868766
PC37  15196.404018 -12131.107858 -19997.334023   -785.713383
PC38 -15033.945560  18775.749355 -34616.656525     75.539637
PC39 -23838.849360  32863.108728  11016.901089     -2.775208
PC40  -8794.181254  35224.853627  21629.825014    -21.972798
PC41  16214.801667  -1255.399791  22735.875122   -923.355570
PC42   7575.327186  26608.752469  -3729.979690   -710.873270
PC43  14047.200678   8057.504300 -22741.840143     19.398498
PC44 -15403.455812  23095.586731  -2673.300207     93.507229
PC45 -26913.754874    945.916623   7355.146592    -92.238723
PC46  -7299.290719 -16538.138941 -21270.555480    -51.013600
PE01  24553.020552  14927.041886  -7101.536604     12.352994
PE02 -24628.309256 -14608.096346   7524.180246     35.665368
PE03 -15584.646191  -7942.473418 -23872.763409   -674.798545
PE04  16899.552971 -13884.709737  19956.535054   -112.995745
PE05  -5049.326756 -25674.864278 -13823.956194    -71.427076
PE07  -8411.540647  28047.997189  -4360.546375    -41.896239
PE08 -16800.264335  13682.136384 -20165.940814    -76.398672
PE09   8461.725165 -27985.346476   4578.542143     -0.089629
PE10  22777.323384 -15486.799613  10834.690908   -530.624790
PE11  13742.275932 -17936.071212  19118.831809   1791.600899
PE12  27528.250960 -10792.180560   1638.086899   -521.339270
PE13 -14481.014298  17833.470407 -18659.939062    -19.000290
PE14  -1939.830629  30795.483518  -8279.781064    213.159511
PE15 -27584.745434  10637.510034  -1301.886496    -18.653551
PE18   5296.428004 -23440.045037   2394.815896     14.966915
PE19  14467.683389  10920.180901  23414.902452  -2632.692884
PE21  15785.278068  22879.272858  10169.386432   -526.660599
PE24   3545.186714 -18089.447777 -23181.121256    -75.484547
PE25 -15525.830257 -22926.377380 -10469.211753   -604.336085
PE26   7817.890738  14321.275114 -24698.060042     91.812017
PE27  -2725.637977  18466.614748  22968.937381    -39.027138
PE30 -19819.553518   2656.838595  21815.738800   -138.720066
PE31  19421.184746  -3231.332939 -22098.575057   -522.808198
PE33  24306.234445   2773.283655 -16676.102620   -445.071024
PE34 -24392.564482  -2621.336791  16553.409157    -43.190890
PE36  -6904.794060 -14501.437659  24861.191133    -49.809337
PG01    989.705617  14899.683107 -22267.095695    188.607761
PG02 -24373.917461   1503.948303  10847.946787   -600.471441
PG03   9984.711221  21197.816661 -12750.854471   -315.061744
PG04   1165.268631  24204.175855  10755.740111     30.761505
PG05   5214.653195 -14853.112892  21202.175402   -125.572996
PG06  25869.321045  -4888.384792  -3837.766149    588.014979
PG07  16564.648440   9358.280832  19178.552416    188.366503
PG08  -6220.822422  25564.715753   1255.304875   -120.466923
PG09   9355.915787  17072.102464  17977.876079   -168.057092
PG10 -21690.388336  -8419.220987 -12913.999140    -35.187851
PG11  21065.000062 -12481.921055  10257.000705   -181.801895
PG12  -6093.130824 -21531.474044 -14654.064637   -370.839379
PG13  13331.647076 -21811.424203   6630.079930    513.922352
PG14  21770.391418  11020.877527 -10656.270480     42.869505
PG15   2655.611888 -26269.164649    310.438822     35.710723
PG16  -9731.962047  11490.512313  21546.731017   -504.533513
PG17  14720.795013   1988.159368 -21598.495127    713.130208
PG18 -19191.577605  -6734.750175  17161.500838   -248.497355
PG19  16627.981935  -7176.615409 -19550.174959    311.217688
PG20  13527.402296  -9082.735293  20979.443613    435.895809
PG21  -7821.334932  16738.824360 -18185.151675    154.015666
PG22 -16263.066001  11294.940683 -17173.014688    474.081161
PG23 -20768.498229 -16558.767059  -2067.927400     20.898448
PG24   2718.175881 -17224.700538 -20283.763929   -173.108902
PG25 -16177.869015 -20508.804727  -5858.239393    439.775147
PG26 -19072.545572   1929.777469  18402.431501    241.269330
PG27 -12658.379155  20028.004210  11318.278065     46.549606
PG28 -25543.162402   4351.206972  -5849.469148     73.034423
PG29  -5164.575841 -20203.624996  16345.190659   -597.801993
PG30  24315.480309   1388.049810  11015.974393   -519.503516
PG31 -24899.853253   9298.797951   3303.896561   -215.219414
PG32 -15582.632831   1275.743522 -21268.201059   -466.028481
PJ02 -25256.648405  22827.238268  29869.246787     -1.728025
PJ03 -35356.096899  22661.589863    844.447104      3.302146
PJ04 -20789.856835  25806.372390 -20928.250871     94.338279
PR01  -5746.632106  16266.639299 -18789.199442     56.664897
PR02   3038.939272  25121.391926  -2903.069931    -22.901655
PR03  10176.123641  18788.067785  13942.765624     77.041124
PR04  11223.967805   2402.637129  22813.185015    185.527275
PR05   6442.731775 -15391.049215  19319.365101    111.865268
PR07 -10304.626451 -18313.701399 -14447.719351     55.001747
PR08 -11297.843160  -2154.905788 -22705.973710    -70.605145
PR09  -5356.408681 -12840.265526 -21344.802354    117.818610
PR11 -24140.869683  -4817.713423   6661.822980    -47.100742
PR12 -13284.214991   6009.987588  20957.452587     26.902747
PR13   3394.602558  12302.549553  22070.277126    -34.582654
PR14  20444.980965  11884.141788   9598.378986     24.601013
PR15  23895.050848   4377.646302  -7771.797964     89.493426
PR16  13522.448743  -5786.390422 -20841.868251     14.122848
PR17   8840.148841   6285.139240 -23082.270013    626.209199
PR18  19147.200836  -6822.047767 -15438.960197     79.377868
PR19  20426.570046 -15230.342200  -1238.601304   -231.062838
PR20   8272.018527 -16392.800739  17731.816364    -92.120653
PR21 -10082.298011  -5030.814057  22880.647495     -4.274632
PR22 -19825.491708   6557.232970  14659.717573     81.609948
PR24  -6921.256086  16725.335742 -17966.395438    166.676416
PR25  -8616.621200  -7032.576747  22957.650987     65.653607
EOF
